STARLINK-2022           
1 47643U 21012Z   23251.08914905  .00016965  00000+0  11546-2 0  9994
2 47643  53.0523 192.9332 0001493  91.1430 268.9730 15.06416012142040
